STARLINK-31075          
1 58594U 23200F   26067.35981993  .00000279  00000+0  20095-4 0  9993
2 58594  43.0013 175.8265 0001718 190.3160 169.7657 15.26747945123417
FLOCK 4G-2              
1 62661U 25009BE  26068.66207492  .00013752  00000+0  51068-3 0  9995
2 62661  97.4044 151.2221 0003181 329.2677  30.8376 15.27675260121321
